{
  "routes": [
    {
      "routeId": "M1_SOUTH",
      "lineId": "M1",
      "lineName": "Μετρό Μ1",
      "lineNameEn": "Metro M1",
      "lineRef": "Μ1",
      "direction": "Κηφισιά → Πειραιάς",
      "directionEn": "Kifissia → Piraeus",
      "terminal1": "Κηφισιά",
      "terminal1En": "Kifissia",
      "terminal2": "Πειραιάς",
      "terminal2En": "Piraeus",
      "color": "#007A33",
      "routeType": "subway",
      "stops": [
        {"id": "node/966323235", "name": "Κηφισιά", "nameEn": "Kifissia", "lat": 38.0733906, "lon": 23.8081192},
        {"id": "node/360188772", "name": "ΚΑΤ", "nameEn": "KAT", "lat": 38.0655462, "lon": 23.8039695},
        {"id": "node/1815887293", "name": "Μαρούσι", "nameEn": "Marousi", "lat": 38.0559993, "lon": 23.8043874},
        {"id": "node/152941813", "name": "Νεραντζιώτισσα", "nameEn": "Nerantziotissa", "lat": 38.0447488, "lon": 23.7925123},
        {"id": "node/4689709386", "name": "Ειρήνη", "nameEn": "Eirini", "lat": 38.0436797, "lon": 23.7828976},
        {"id": "node/3951256871", "name": "Ηράκλειο", "nameEn": "Irakleio", "lat": 38.0465498, "lon": 23.7655433},
        {"id": "node/957178291", "name": "Νέα Ιωνία", "nameEn": "Nea Ionia", "lat": 38.0413999, "lon": 23.7543061},
        {"id": "node/9178426340", "name": "Πευκάκια", "nameEn": "Pefkakia", "lat": 38.0368376, "lon": 23.7497274},
        {"id": "node/250929833", "name": "Περισσός", "nameEn": "Perissos", "lat": 38.0325103, "lon": 23.7444403},
        {"id": "node/9178426342", "name": "Άνω Πατήσια", "nameEn": "Ano Patisia", "lat": 38.0235487, "lon": 23.7355454},
        {"id": "node/9178426344", "name": "Άγιος Ελευθέριος", "nameEn": "Agios Eleftherios", "lat": 38.0194516, "lon": 23.7313821},
        {"id": "node/9178426349", "name": "Κάτω Πατήσια", "nameEn": "Kato Patisia", "lat": 38.0119247, "lon": 23.728624},
        {"id": "node/960915736", "name": "Άγιος Νικόλαος", "nameEn": "Agios Nikolaos", "lat": 38.0069954, "lon": 23.7276817},
        {"id": "node/251083098", "name": "Αττική", "nameEn": "Attiki", "lat": 37.9995293, "lon": 23.7228229},
        {"id": "node/5396738077", "name": "Βικτώρια", "nameEn": "Victoria", "lat": 37.9926581, "lon": 23.730138},
        {"id": "node/5396738094", "name": "Ομόνοια", "nameEn": "Omonia", "lat": 37.983945, "lon": 23.7279215},
        {"id": "node/97819323", "name": "Μοναστηράκι", "nameEn": "Monastiraki", "lat": 37.9758884, "lon": 23.7249306},
        {"id": "node/1005305034", "name": "Θησείο", "nameEn": "Thiseio", "lat": 37.9769903, "lon": 23.7196752},
        {"id": "node/2278850036", "name": "Πετράλωνα", "nameEn": "Petralona", "lat": 37.9680413, "lon": 23.7088499},
        {"id": "node/2278850038", "name": "Ταύρος-Ελευθέριος Βενιζέλος", "nameEn": "Tavros-Eleftherios Venizelos", "lat": 37.9623457, "lon": 23.7030069},
        {"id": "node/2264934374", "name": "Καλλιθέα", "nameEn": "Kallithea", "lat": 37.9603133, "lon": 23.6965624},
        {"id": "node/2264918306", "name": "Μοσχάτο", "nameEn": "Moschato", "lat": 37.9553108, "lon": 23.6804675},
        {"id": "node/2253053671", "name": "Φάληρο", "nameEn": "Faliro", "lat": 37.9450791, "lon": 23.6652392},
        {"id": "node/3962223865", "name": "Πειραιάς", "nameEn": "Piraeus", "lat": 37.9481084, "lon": 23.6432487}
      ]
    },
    {
      "routeId": "M1_NORTH",
      "lineId": "M1",
      "lineName": "Μετρό Μ1",
      "lineNameEn": "Metro M1",
      "lineRef": "Μ1",
      "direction": "Πειραιάς → Κηφισιά",
      "directionEn": "Piraeus → Kifissia",
      "terminal1": "Πειραιάς",
      "terminal1En": "Piraeus",
      "terminal2": "Κηφισιά",
      "terminal2En": "Kifissia",
      "color": "#007A33",
      "routeType": "subway",
      "stops": [
        {"id": "node/3962223865", "name": "Πειραιάς", "nameEn": "Piraeus", "lat": 37.9481084, "lon": 23.6432487},
        {"id": "node/2253053671", "name": "Φάληρο", "nameEn": "Faliro", "lat": 37.9450791, "lon": 23.6652392},
        {"id": "node/2264918306", "name": "Μοσχάτο", "nameEn": "Moschato", "lat": 37.9553108, "lon": 23.6804675},
        {"id": "node/2264934374", "name": "Καλλιθέα", "nameEn": "Kallithea", "lat": 37.9603133, "lon": 23.6965624},
        {"id": "node/2278850038", "name": "Ταύρος-Ελευθέριος Βενιζέλος", "nameEn": "Tavros-Eleftherios Venizelos", "lat": 37.9623457, "lon": 23.7030069},
        {"id": "node/2278850036", "name": "Πετράλωνα", "nameEn": "Petralona", "lat": 37.9680413, "lon": 23.7088499},
        {"id": "node/1005305034", "name": "Θησείο", "nameEn": "Thiseio", "lat": 37.9769903, "lon": 23.7196752},
        {"id": "node/97819323", "name": "Μοναστηράκι", "nameEn": "Monastiraki", "lat": 37.9758884, "lon": 23.7249306},
        {"id": "node/5396738094", "name": "Ομόνοια", "nameEn": "Omonia", "lat": 37.983945, "lon": 23.7279215},
        {"id": "node/5396738077", "name": "Βικτώρια", "nameEn": "Victoria", "lat": 37.9926581, "lon": 23.730138},
        {"id": "node/251083098", "name": "Αττική", "nameEn": "Attiki", "lat": 37.9995293, "lon": 23.7228229},
        {"id": "node/960915736", "name": "Άγιος Νικόλαος", "nameEn": "Agios Nikolaos", "lat": 38.0069954, "lon": 23.7276817},
        {"id": "node/9178426349", "name": "Κάτω Πατήσια", "nameEn": "Kato Patisia", "lat": 38.0119247, "lon": 23.728624},
        {"id": "node/9178426344", "name": "Άγιος Ελευθέριος", "nameEn": "Agios Eleftherios", "lat": 38.0194516, "lon": 23.7313821},
        {"id": "node/9178426342", "name": "Άνω Πατήσια", "nameEn": "Ano Patisia", "lat": 38.0235487, "lon": 23.7355454},
        {"id": "node/250929833", "name": "Περισσός", "nameEn": "Perissos", "lat": 38.0325103, "lon": 23.7444403},
        {"id": "node/9178426340", "name": "Πευκάκια", "nameEn": "Pefkakia", "lat": 38.0368376, "lon": 23.7497274},
        {"id": "node/957178291", "name": "Νέα Ιωνία", "nameEn": "Nea Ionia", "lat": 38.0413999, "lon": 23.7543061},
        {"id": "node/3951256871", "name": "Ηράκλειο", "nameEn": "Irakleio", "lat": 38.0465498, "lon": 23.7655433},
        {"id": "node/4689709386", "name": "Ειρήνη", "nameEn": "Eirini", "lat": 38.0436797, "lon": 23.7828976},
        {"id": "node/152941813", "name": "Νεραντζιώτισσα", "nameEn": "Nerantziotissa", "lat": 38.0447488, "lon": 23.7925123},
        {"id": "node/1815887293", "name": "Μαρούσι", "nameEn": "Marousi", "lat": 38.0559993, "lon": 23.8043874},
        {"id": "node/360188772", "name": "ΚΑΤ", "nameEn": "KAT", "lat": 38.0655462, "lon": 23.8039695},
        {"id": "node/966323235", "name": "Κηφισιά", "nameEn": "Kifissia", "lat": 38.0733906, "lon": 23.8081192}
      ]
    }
  ]
}